[
    {
        "Altitude(m)": 617719.7942583837,
        "Argument of Periapsis(deg)": 0.0,
        "Eccentricity": 0.0,
        "Inclination(deg)": 60.0,
        "Latitude(deg)": -41.102703224668836,
        "Longitude(deg)": -99.90539385323166,
        "Mean Anomaly(deg)": -130.90909999999997,
        "RAAN(deg)": 150.0,
        "Satellite Name": "Test1 674",
        "Satellite Number": 674,
        "Semi-Major Axis(m)": 6980739.136638005,
        "Time(s)": 0
    },
    {
        "Altitude(m)": 617911.3303654653,
        "Argument of Periapsis(deg)": 0.00010418945913296404,
        "Eccentricity": 0.0,
        "Inclination(deg)": 60.0,
        "Latitude(deg)": -41.565895607053875,
        "Longitude(deg)": -99.40098748567992,
        "Mean Anomaly(deg)": -130.28899385453818,
        "RAAN(deg)": 149.99957995086027,
        "Satellite Name": "Test1 674",
        "Satellite Number": 674,
        "Semi-Major Axis(m)": 6980739.136638005,
        "Time(s)": 10
    }
]